STARLINK-35154          
1 65612U 25207W   25280.66670139 -.00019725  00000+0 -36169-3 0  9994
2 65612  97.6029 343.8660 0001270  98.2134 142.3533 15.49193139  4877
STARLINK-35162          
1 65613U 25207X   25280.66670139 -.00041408  00000+0 -76313-3 0  9993
2 65613  97.6028 343.8674 0001307  96.0242 146.4663 15.49201727  5030
STARLINK-35206          
1 65614U 25207Y   25280.66670139 -.01549842  00000+0 -33481-1 0  9997
2 65614  97.6028 343.8692 0001775  93.9710 150.9367 15.47492239  4933
STARLINK-35174          
1 65615U 25207Z   25280.66670139 -.01525076  00000+0 -38520-1 0  9990
2 65615  97.6028 343.8638 0001747  78.8306 149.4578 15.42881341  5036
CYGNUS NG-23            
1 65616U 25208A   25280.56154252  .00011563  00000+0  21215-3 0  9997
2 65616  51.6306 110.1213 0000824 212.9644 147.1294 15.49745292   228
HJS-7A                  
1 65617U 25209A   25280.56098595 -.00000259  00000+0 -42362-4 0  9995
2 65617  49.9978 248.4587 0001962 233.0989 126.9745 14.24479373  3071
HJS-7B                  
1 65618U 25209B   25280.56016551 -.00000202  00000+0 -17931-4 0  9990
2 65618  49.9979 248.4549 0001687 236.7606 123.3145 14.24531919  3060
HJS-7C                  
1 65619U 25209C   25280.48927043 -.00000203  00000+0 -18523-4 0  9998
2 65619  49.9981 248.7467 0001403 245.5890 114.4877 14.24582720  3042
HJS-7D                  
1 65620U 25209D   25280.48703691 -.00000207  00000+0 -20235-4 0  9998
2 65620  50.0006 248.7326 0001370 257.5116 102.5644 14.24740963  3041
STARLINK-35247          
1 65622U 25210A   25280.66670139 -.02100303  00000+0 -44580-1 0  9998
2 65622  53.1586 300.9834 0001000  76.5544 101.2476 15.47980009  4312
STARLINK-35239          
1 65623U 25210B   25280.66670139 -.00091918  00000+0 -16625-2 0  9998
2 65623  53.1582 300.9778 0001151  78.2221 102.2585 15.49335896  4316
STARLINK-35151          
1 65624U 25210C   25280.66670139 -.00096999  00000+0 -17558-2 0  9999
2 65624  53.1581 300.9618 0001139  80.8573 107.2918 15.49339212  4236
STARLINK-35153          
1 65625U 25210D   25280.66670139 -.00098118  00000+0 -17763-2 0  9993
2 65625  53.1581 300.9540 0001160  83.3997 108.5814 15.49341019  4230
STARLINK-35225          
1 65626U 25210E   25280.66670139 -.00098311  00000+0 -17800-2 0  9991
2 65626  53.1582 300.9740 0001150  80.0980 102.2997 15.49338693  4315
STARLINK-35217          
1 65627U 25210F   25280.66670139 -.00098304  00000+0 -17797-2 0  9999
2 65627  53.1582 300.9696 0001166  79.5906 104.7213 15.49341512  4316
STARLINK-35128          
1 65628U 25210G   25280.66670139 -.01654933  00000+0 -32694-1 0  9999
2 65628  53.1584 300.9579 0001414  79.7280 110.2674 15.49743702  4312
STARLINK-35135          
1 65629U 25210H   25280.66670139 -.00120097  00000+0 -21806-2 0  9992
2 65629  53.1581 300.9501 0001171  84.6225 109.2648 15.49359854  4319
STARLINK-34877          
1 65630U 25210J   25280.66670139 -.00093863  00000+0 -16982-2 0  9993
2 65630  53.1581 300.9659 0001128  80.3345 105.8980 15.49337517  4316
STARLINK-35104          
1 65631U 25210K   25280.66670139 -.00105109  00000+0 -19050-2 0  9990
2 65631  53.1582 300.9457 0001218  77.8678 117.9527 15.49342504  4317
STARLINK-35117          
1 65632U 25210L   25280.66670139 -.00096985  00000+0 -17555-2 0  9990
2 65632  53.1581 300.9426 0001230  79.4055 118.3283 15.49340173  4318
STARLINK-35103          
1 65633U 25210M   25280.66670139 -.00096318  00000+0 -17432-2 0  9995
2 65633  53.1581 300.9338 0001147  85.2727 116.2935 15.49339864  4315
STARLINK-35123          
1 65634U 25210N   25280.66670139 -.00100642  00000+0 -18240-2 0  9990
2 65634  53.1581 300.9380 0001143  74.8037 124.8966 15.49321690  4314
STARLINK-35150          
1 65635U 25210P   25280.66670139 -.00109509  00000+0 -19858-2 0  9998
2 65635  53.1581 300.9297 0001174  84.0714 119.4060 15.49348734  4314
STARLINK-35209          
1 65636U 25210Q   25280.66670139 -.02093764  00000+0 -44647-1 0  9999
2 65636  53.1584 300.9274 0001329  83.7599 120.7241 15.47834553  4315
STARLINK-35147          
1 65637U 25210R   25280.66670139 -.00425994  00000+0 -80278-2 0  9993
2 65637  53.1582 300.9214 0001194  86.4540 120.8243 15.49478945  4318
STARLINK-35213          
1 65638U 25210S   25280.66670139 -.00110659  00000+0 -20071-2 0  9998
2 65638  53.1581 300.9176 0000990  83.9706 125.2596 15.49347699  4315
STARLINK-35127          
1 65639U 25210T   25280.66670139 -.00107682  00000+0 -19522-2 0  9990
2 65639  53.1580 300.9137 0001178  86.3765 124.7714 15.49346393  4319
STARLINK-35091          
1 65640U 25210U   25280.66670139 -.00065415  00000+0 -11778-2 0  9994
2 65640  53.1580 300.9096 0001097  78.4562 134.6372 15.49311908  4316
STARLINK-35134          
1 65641U 25210V   25280.66670139 -.00099735  00000+0 -18061-2 0  9999
2 65641  53.1580 300.9057 0001136  84.9462 130.0374 15.49340549  4314
STARLINK-35109          
1 65642U 25210W   25280.66670139 -.00151575  00000+0 -27648-2 0  9992
2 65642  53.1580 300.9010 0001212  72.6788 144.2277 15.49366071  4311
STARLINK-35062          
1 65643U 25210X   25280.66670139 -.00101210  00000+0 -18332-2 0  9994
2 65643  53.1580 300.8972 0001155  80.5933 138.2227 15.49341587  4317
STARLINK-35141          
1 65644U 25210Y   25280.66670139 -.00104108  00000+0 -18866-2 0  9996
2 65644  53.1579 300.8909 0001135  78.2570 144.3951 15.49341624  4319
STARLINK-35237          
1 65645U 25210Z   25280.66670139 -.00124874  00000+0 -22698-2 0  9997
2 65645  53.1579 300.8942 0001181  77.1262 143.6118 15.49350773  4316
STARLINK-35183          
1 65646U 25210AA  25280.66670139 -.00096421  00000+0 -17451-2 0  9995
2 65646  53.1580 300.8854 0001174  84.1183 140.4473 15.49339586  4311
STARLINK-35202          
1 65647U 25210AB  25280.66670139 -.00109458  00000+0 -19850-2 0  9996
2 65647  53.1579 300.8809 0001079  85.8015 140.6831 15.49346386  4312
STARLINK-34868          
1 65648U 25210AC  25280.66670139 -.00090393  00000+0 -16344-2 0  9999
2 65648  53.1580 300.8731 0001195  81.9516 148.3654 15.49336630  4310
STARLINK-35079          
1 65649U 25210AD  25280.66670139 -.00078938  00000+0 -14251-2 0  9996
2 65649  53.1580 300.8768 0000932  94.4322 133.9995 15.49319045  4312
STARLINK-35328          
1 65652U 25211A   25280.66670139 -.00059373  00000+0 -10965-2 0  9991
2 65652  97.6028 322.2081 0001430  96.7445 159.5947 15.49228768  3868
STARLINK-34210          
1 65653U 25211B   25280.66670139  .00013684  00000+0  25283-3 0  9995
2 65653  97.6033 322.2102 0001431 103.7372 156.4292 15.49200696  3968
STARLINK-35227          
1 65654U 25211C   25280.66670139  .00004605  00000+0  86352-4 0  9994
2 65654  97.6032 322.2121 0001426 100.3505 163.6490 15.49205898  3918
STARLINK-35240          
1 65655U 25211D   25280.66670139 -.00101140  00000+0 -18777-2 0  9993
2 65655  97.6030 322.2092 0001597  97.4171 160.8483 15.49247004  3914
STARLINK-35344          
1 65656U 25211E   25280.66670139 -.00021845  00000+0 -40036-3 0  9991
2 65656  97.6070 322.2104 0001324 108.9269 153.1639 15.49229254  3866
STARLINK-34540          
1 65657U 25211F   25280.66670139  .00055081  00000+0  10086-2 0  9990
2 65657  97.6031 322.2118 0001573 103.4743 162.4115 15.49154424  3961
STARLINK-35282          
1 65658U 25211G   25280.66670139 -.00004280  00000+0 -76831-4 0  9990
2 65658  97.6072 322.2139 0001590 102.3415 167.4022 15.49222981  3914
STARLINK-35120          
1 65659U 25211H   25280.66670139 -.00102799  00000+0 -19089-2 0  9995
2 65659  97.6032 322.2136 0001609  95.8913 171.9575 15.49247306  3919
STARLINK-35246          
1 65660U 25211J   25280.66670139 -.00122167  00000+0 -22743-2 0  9999
2 65660  97.6033 322.2148 0001439  98.3835 173.3115 15.49249070  3913
STARLINK-35220          
1 65661U 25211K   25280.66670139 -.00006441  00000+0 -11662-3 0  9995
2 65661  97.6036 322.2166 0001417  97.0014 176.5832 15.49210391  3913
STARLINK-35176          
1 65662U 25211L   25280.66670139 -.00028369  00000+0 -52109-3 0  9990
2 65662  97.6028 322.2173 0001489 100.2831 175.2227 15.49217575  3911
STARLINK-35190          
1 65663U 25211M   25280.66670139 -.00099457  00000+0 -18469-2 0  9997
2 65663  97.6031 322.2177 0001525 104.5462 172.9129 15.49233220  3862
STARLINK-35201          
1 65664U 25211N   25280.66670139 -.00032199  00000+0 -59193-3 0  9998
2 65664  97.6028 322.2201 0001478  95.7222 183.6225 15.49219949  3913
STARLINK-35115          
1 65665U 25211P   25280.66670139 -.00098203  00000+0 -18226-2 0  9998
2 65665  97.6028 322.2203 0001500  97.1411 184.1266 15.49243977  3962
STARLINK-35181          
1 65666U 25211Q   25280.66670139 -.00024192  00000+0 -44392-3 0  9999
2 65666  97.6030 322.2207 0001536 105.6205 177.5500 15.49215156  3915
STARLINK-35361          
1 65667U 25211R   25280.66670139 -.00012901  00000+0 -23558-3 0  9996
2 65667  97.6032 322.2217 0001517 100.5589 184.5268 15.49212009  3910
STARLINK-35351          
1 65668U 25211S   25280.66670139  .00079376  00000+0  14495-2 0  9993
2 65668  97.6033 322.2231 0001219  94.5335 192.5500 15.49128988  3918
STARLINK-35353          
1 65669U 25211T   25280.66670139 -.00008323  00000+0 -15127-3 0  9994
2 65669  97.6032 322.2230 0001536  99.7560 189.1541 15.49209582  3913
STARLINK-35359          
1 65670U 25211U   25280.66670139 -.00007599  00000+0 -13795-3 0  9999
2 65670  97.6036 322.2243 0001420  98.4097 192.4277 15.49209103  3705
STARLINK-35194          
1 65671U 25211V   25280.66670139 -.00038129  00000+0 -70217-3 0  9995
2 65671  97.6033 322.2258 0001209  83.1155 211.5878 15.49206088  3912
STARLINK-35198          
1 65672U 25211W   25280.66670139  .00014969  00000+0  27634-3 0  9995
2 65672  97.6035 322.2250 0001435  99.4834 193.2601 15.49202077  3916
STARLINK-35177          
1 65673U 25211X   25280.66670139 -.00071197  00000+0 -13177-2 0  9990
2 65673  97.6033 322.2272 0001007  88.9812 209.5612 15.49218048  3753
